[{"OBJECT_NAME":"STARLINK-3457","OBJECT_ID":"2022-016AS","EPOCH":"2026-03-09T22:23:05.298144","MEAN_MOTION":15.08835783,"ECCENTRICITY":0.00013516,"INCLINATION":53.2177,"RA_OF_ASC_NODE":307.7882,"ARG_OF_PERICENTER":98.3855,"MEAN_ANOMALY":261.7291,"EPHEMERIS_TYPE":0,"CLASSIFICATION_TYPE":"U","NORAD_CAT_ID":51754,"ELEMENT_SET_NO":999,"REV_AT_EPOCH":22374,"BSTAR":-1.4664417e-5,"MEAN_MOTION_DOT":-5.21e-6,"MEAN_MOTION_DDOT":0},{"OBJECT_NAME":"PACE","OBJECT_ID":"2014-033N","EPOCH":"2026-03-09T22:47:44.809152","MEAN_MOTION":15.09745465,"ECCENTRICITY":0.00061206,"INCLINATION":98.125,"RA_OF_ASC_NODE":67.7953,"ARG_OF_PERICENTER":179.3374,"MEAN_ANOMALY":180.7863,"EPHEMERIS_TYPE":0,"CLASSIFICATION_TYPE":"U","NORAD_CAT_ID":40022,"ELEMENT_SET_NO":999,"REV_AT_EPOCH":63805,"BSTAR":0.00051174262,"MEAN_MOTION_DOT":8.193e-5,"MEAN_MOTION_DDOT":0}]
